GOES 1 [-]              
1 08366U 75100A   09171.44932737 -.00000238  00000-0  10000-3 0  8697
2 08366  14.3649 347.8015 0001976 288.4999  71.4733  1.00291143122980
GOES 2 [-]              
1 10061U 77048A   09167.52849232 -.00000029  00000-0  10000-3 0  8830
2 10061  14.6511 356.2921 0015988 252.2730 107.5554  0.99394656 61799
GOES 3 [P]              
1 10953U 78062A   09171.54121976 -.00000120  00000-0  10000-3 0  5370
2 10953  14.3620   0.0655 0003485   7.0194 352.9825  1.00266457 66707
GOES 4 [-]              
1 11964U 80074A   09166.78457223 -.00000172  00000-0  10000-3 0  1267
2 11964  14.7122   3.7958 0035843 294.5203  65.0954  0.99233527 66012
GOES 5 [-]              
1 12472U 81049A   09171.50036661 -.00000263  00000-0  10000-3 0  1621
2 12472  13.6874  14.2686 0001561 182.3715 177.6247  1.00233357 60749
GOES 6 [-]              
1 14050U 83041A   09167.52620620 -.00000258  00000-0  10000-3 0  1624
2 14050  13.3400  19.3960 0001556   6.4782 353.5168  1.00277844153806
GOES 7 [-]              
1 17561U 87022A   09169.41629845  .00000063  00000-0  10000-3 0  9996
2 17561  12.1091  37.2086 0002569 197.4789   4.8928  1.00281198 64921
GOES 8 [-]              
1 23051U 94022A   09171.58227891 -.00000197  00000-0  10000-3 0  8326
2 23051   5.7589  73.5898 0006092 175.4080 184.3458  0.98906540 62753
GOES 9 [P]              
1 23581U 95025A   09166.80163177  .00000066  00000-0  10000-3 0  1139
2 23581   5.3082  70.6234 0004978 323.1256  36.6559  0.98799050 51413
GOES 10 [+]             
1 24786U 97019A   09168.38691968 -.00000267  00000-0  10000-3 0  9672
2 24786   3.6326  74.5865 0003943  15.7178 254.4534  1.00260752 44505
GOES 11 [+]             
1 26352U 00022A   09172.18728219  .00000101  00000-0  10000-3 0  3685
2 26352   0.4735 263.4759 0001490 278.7084  19.4797  1.00263604 33448
GOES 12 [+]             
1 26871U 01031A   09171.69002953 -.00000238  00000-0  10000-3 0  1036
2 26871   0.0420 121.2981 0004730 317.6522   3.7267  1.00276018 29041
GOES 13 [S]             
1 29155U 06018A   09172.16590238 -.00000075  00000-0  10000-3 0  6523
2 29155   0.1459 240.4420 0001304 315.9920  27.2485  1.00272064 11299
